[{"OBJECT_NAME":"STARLINK-3919","OBJECT_ID":"2022-051AW","EPOCH":"2026-03-09T11:05:32.756352","MEAN_MOTION":15.0884405,"ECCENTRICITY":0.00013977,"INCLINATION":53.2161,"RA_OF_ASC_NODE":135.1523,"ARG_OF_PERICENTER":93.5124,"MEAN_ANOMALY":266.6028,"EPHEMERIS_TYPE":0,"CLASSIFICATION_TYPE":"U","NORAD_CAT_ID":52580,"ELEMENT_SET_NO":999,"REV_AT_EPOCH":21134,"BSTAR":4.3521448e-5,"MEAN_MOTION_DOT":4.05e-6,"MEAN_MOTION_DDOT":0},{"OBJECT_NAME":"CZ-6A DEB","OBJECT_ID":"2024-140PU","EPOCH":"2026-03-09T02:24:11.901600","MEAN_MOTION":14.96529453,"ECCENTRICITY":0.01989751,"INCLINATION":89.1479,"RA_OF_ASC_NODE":289.7131,"ARG_OF_PERICENTER":96.8489,"MEAN_ANOMALY":265.5425,"EPHEMERIS_TYPE":0,"CLASSIFICATION_TYPE":"U","NORAD_CAT_ID":61126,"ELEMENT_SET_NO":999,"REV_AT_EPOCH":8404,"BSTAR":0.00070354239,"MEAN_MOTION_DOT":0.00012037,"MEAN_MOTION_DDOT":0}]
